1 43565U 18060B   19001.18767362 -.00000080  00000-0  00000+0 0  9997
2 43565  56.4418  55.7069 0005574 271.7387  88.2531  1.70476453  2771
1 43565U 18060B   19004.70717339 -.00000069  00000-0  00000+0 0  9994
2 43565  56.4445  55.6095 0005642 272.5397  87.4643  1.70476542  2836
1 43565U 18060B   19006.46691890 -.00000064  00000-0  00000-0 0  9998
2 43565  56.4457  55.5609 0005673 272.9215  87.0859  1.70476551  2864
1 43565U 18060B   19007.05349998 -.00000062  00000-0  00000+0 0  9990
2 43565  56.4462  55.5446 0005690 273.1017  86.9060  1.70476533  2874
1 43565U 18060B   19008.22665968 -.00000058  00000-0  00000-0 0  9994
2 43565  56.4470  55.5122 0005727 273.5797  86.4275  1.70476518  2892
1 43565U 18060B   19009.39981564 -.00000055  00000-0  00000+0 0  9992
2 43565  56.4479  55.4798 0005753 273.8955  86.1101  1.70476543  2913
1 43565U 18060B   19011.15954982 -.00000050  00000-0  00000-0 0  9999
2 43565  56.4492  55.4311 0005802 274.6755  85.3266  1.70476502  2942
1 43565U 18060B   19012.91928562 -.00000045  00000-0  00000+0 0  9992
2 43565  56.4505  55.3824 0005834 275.0904  84.9094  1.70476467  2978
1 43565U 18060B   19013.50586542 -.00000044  00000-0  00000-0 0  9996
2 43565  56.4509  55.3661 0005853 275.3768  84.6226  1.70476425  2982
1 43565U 18060B   19015.26560772 -.00000040  00000-0  00000+0 0  9993
2 43565  56.4523  55.3174 0005885 275.7408  84.2599  1.70476389  3010
1 43565U 18060B   19015.85219002 -.00000039  00000-0  00000-0 0  9994
2 43565  56.4528  55.3011 0005910 275.9907  84.0111  1.70476332  3027
1 43565U 18060B   19018.78510206 -.00000034  00000-0  00000+0 0  9993
2 43565  56.4550  55.2198 0005976 276.8162  83.1918  1.70476230  3079
1 43565U 18060B   19019.95826346 -.00000034  00000-0  00000-0 0  9999
2 43565  56.4559  55.1873 0005990 276.9724  83.0361  1.70476217  3096
1 43565U 18060B   19021.71799730 -.00000039  00000-0  00000+0 0  9996
2 43565  56.4572  55.1385 0006018 277.4158  82.5884  1.70476212  3121
1 43565U 18060B   19022.89114974 -.00000044  00000-0  00000-0 0  9994
2 43565  56.4582  55.1058 0006053 277.8475  82.1510  1.70476173  3144
1 43565U 18060B   19023.47772438 -.00000048  00000-0  00000-0 0  9998
2 43565  56.4587  55.0895 0006068 278.0907  81.9046  1.70476193  3150
1 43565U 18060B   19025.23745204 -.00000056  00000-0  00000+0 0  9993
2 43565  56.4601  55.0407 0006092 278.3405  81.6461  1.70476208  3187
1 43565U 18060B   19026.41060709 -.00000060  00000-0  00000-0 0  9990
2 43565  56.4610  55.0082 0006110 278.5798  81.4033  1.70476232  3207
1 43565U 18060B   19027.58376533 -.00000061  00000-0  00000-0 0  9995
2 43565  56.4620  54.9756 0006138 278.9893  80.9925  1.70476299  3223
1 43565U 18060B   19028.17034710 -.00000061  00000-0  00000-0 0  9999
2 43565  56.4625  54.9594 0006145 279.1366  80.8455  1.70476296  3239
1 43565U 18060B   19029.93009337 -.00000057  00000-0  00000+0 0  9995
2 43565  56.4639  54.9107 0006162 279.4955  80.4896  1.70476344  3262
1 43565U 18060B   19029.93009337 -.00000057  00000-0  00000-0 0  9996
2 43565  56.4639  54.9107 0006162 279.4955  80.4896  1.70476344  3262
1 43565U 18060B   19031.10325997 -.00000053  00000-0  00000-0 0  9997
2 43565  56.4649  54.8782 0006177 279.9320  80.0558  1.70476351  3289
1 43565U 18060B   19032.27642408 -.00000049  00000-0  00000+0 0  9999
2 43565  56.4658  54.8458 0006187 280.2327  79.7569  1.70476378  3301
1 43565U 18060B   19033.44958617 -.00000046  00000-0  00000-0 0  9999
2 43565  56.4667  54.8134 0006199 280.5283  79.4618  1.70476391  3328
1 43565U 18060B   19035.79590220 -.00000040  00000-0  00000+0 0  9994
2 43565  56.4686  54.7486 0006230 281.2178  78.7689  1.70476410  3361
1 43565U 18060B   19036.38247958 -.00000038  00000-0  00000-0 0  9995
2 43565  56.4691  54.7324 0006238 281.3840  78.6011  1.70476418  3370
1 43565U 18060B   19036.96905703 -.00000036  00000-0  00000-0 0  9996
2 43565  56.4695  54.7162 0006236 281.3852  78.5981  1.70476416  3389
1 43565U 18060B   19038.14221203 -.00000033  00000-0  00000+0 0  9990
2 43565  56.4704  54.6838 0006253 281.8004  78.1792  1.70476395  3407
1 43565U 18060B   19038.14221230 -.00000033  00000-0  00000-0 0  9991
2 43565  56.4704  54.6838 0006253 281.8757  78.1039  1.70476388  3408
1 43565U 18060B   19038.72878999 -.00000032  00000-0  00000-0 0  9994
2 43565  56.4708  54.6676 0006250 281.9518  78.0261  1.70476375  3418
1 43565U 18060B   19041.07510467 -.00000026  00000-0  00000+0 0  9991
2 43565  56.4727  54.6027 0006266 282.5932  77.3798  1.70476301  3453
1 43565U 18060B   19042.83484725 -.00000022  00000-0  00000-0 0  9990
2 43565  56.4741  54.5540 0006291 283.1875  76.7853  1.70476196  3489
1 43565U 18060B   19045.18117543 -.00000018  00000-0  00000-0 0  9997
2 43565  56.4760  54.4891 0006315 283.8446  76.1309  1.70476108  3524
1 43565U 18060B   19045.18117552 -.00000018  00000-0  00000+0 0  9996
2 43565  56.4760  54.4892 0006311 283.6837  76.2919  1.70476127  3522
1 43565U 18060B   19046.35433854 -.00000017  00000-0  00000-0 0  9992
2 43565  56.4769  54.4567 0006319 284.0100  75.9661  1.70476092  3549
1 43565U 18060B   19048.11407740 -.00000020  00000-0  00000-0 0  9997
2 43565  56.4783  54.4080 0006330 284.4768  75.4964  1.70476027  3574
1 43565U 18060B   19049.28723107 -.00000024  00000-0  00000-0 0  9998
2 43565  56.4793  54.3755 0006330 284.7335  75.2346  1.70476025  3598
1 43565U 18060B   19050.46038167 -.00000030  00000-0  00000+0 0  9991
2 43565  56.4803  54.3430 0006332 284.9764  74.9847  1.70476030  3611
1 43565U 18060B   19051.04695699 -.00000034  00000-0  00000-0 0  9990
2 43565  56.4808  54.3268 0006330 285.0069  74.9506  1.70476027  3622
1 43565U 18060B   19052.80668507 -.00000043  00000-0  00000+0 0  9992
2 43565  56.4822  54.2781 0006335 285.4025  74.5452  1.70476035  3656
1 43565U 18060B   19053.39326285 -.00000046  00000-0  00000-0 0  9995
2 43565  56.4827  54.2619 0006338 285.5127  74.4328  1.70476034  3669
1 43565U 18060B   19055.73958318 -.00000048  00000-0  00000+0 0  9994
2 43565  56.4846  54.1970 0006340 286.0434  73.8991  1.70476085  3709
1 43565U 18060B   19057.49933170 -.00000045  00000-0  00000-0 0  9996
2 43565  56.4861  54.1484 0006327 286.5573  73.3875  1.70476132  3732
1 43565U 18060B   19058.08591416 -.00000044  00000-0  00000+0 0  9993
2 43565  56.4866  54.1322 0006326 286.7016  73.2441  1.70476154  3744
1 43565U 18060B   19059.84566173 -.00000040  00000-0  00000-0 0  9997
2 43565  56.4881  54.0836 0006307 287.2050  72.7428  1.70476195  3770
1 43565U 18060B   19061.01882316 -.00000038  00000-0  00000+0 0  9995
2 43565  56.4889  54.0513 0006303 287.4353  72.5120  1.70476213  3794
1 43565U 18060B   19062.19198320 -.00000035  00000-0  00000-0 0  9998
2 43565  56.4898  54.0189 0006294 287.8414  72.1042  1.70476220  3814
1 43565U 18060B   19063.95171880 -.00000032  00000-0  00000+0 0  9991
2 43565  56.4912  53.9705 0006289 288.1288  71.8119  1.70476213  3846
1 43565U 18060B   19063.95171880 -.00000032  00000-0  00000-0 0  9992
2 43565  56.4912  53.9705 0006289 288.1288  71.8119  1.70476213  3846
1 43565U 18060B   19065.12487583 -.00000030  00000-0  00000-0 0  9991
2 43565  56.4921  53.9382 0006283 288.6329  71.3041  1.70476191  3868
1 43565U 18060B   19067.47119139 -.00000025  00000-0  00000+0 0  9993
2 43565  56.4938  53.8736 0006262 289.2738  70.6569  1.70476129  3909
1 43565U 18060B   19068.05777150 -.00000024  00000-0  00000-0 0  9991
2 43565  56.4943  53.8575 0006256 289.4261  70.5039  1.70476109  3912
1 43565U 18060B   19069.81751593 -.00000021  00000-0  00000+0 0  9995
2 43565  56.4956  53.8090 0006245 289.8324  70.0972  1.70476032  3949
1 43565U 18060B   19070.40409769 -.00000020  00000-0  00000-0 0  9997
2 43565  56.4961  53.7928 0006242 289.8754  70.0547  1.70476033  3958
1 43565U 18060B   19072.16384832 -.00000018  00000-0  00000+0 0  9991
2 43565  56.4974  53.7443 0006234 290.3275  69.6053  1.70475926  3989
1 43565U 18060B   19072.75043075 -.00000017  00000-0  00000-0 0  9997
2 43565  56.4979  53.7281 0006232 290.3714  69.5621  1.70475927  3992
1 43565U 18060B   19076.26991472 -.00000024  00000-0  00000+0 0  9997
2 43565  56.5006  53.6310 0006194 291.1476  68.7814  1.70475820  4052
1 43565U 18060B   19076.85649227 -.00000027  00000-0  00000-0 0  9994
2 43565  56.5010  53.6148 0006182 291.3777  68.5485  1.70475806  4066
1 43565U 18060B   19077.44306944 -.00000031  00000-0  00000-0 0  9991
2 43565  56.5015  53.5986 0006174 291.3953  68.5278  1.70475804  4076
1 43565U 18060B   19078.02964605 -.00000035  00000-0  00000-0 0  9994
2 43565  56.5019  53.5825 0006166 291.4751  68.4447  1.70475803  4087
1 43565U 18060B   19079.78937711 -.00000046  00000-0  00000+0 0  9997
2 43565  56.5033  53.5339 0006142 291.8077  68.1030  1.70475817  4116
1 43565U 18060B   19081.54911564 -.00000053  00000-0  00000-0 0  9991
2 43565  56.5047  53.4853 0006118 292.1601  67.7459  1.70475846  4146
1 43565U 18060B   19082.13569769 -.00000054  00000-0  00000-0 0  9994
2 43565  56.5051  53.4692 0006109 292.2891  67.6166  1.70475849  4152
1 43565U 18060B   19084.48203223 -.00000054  00000-0  00000+0 0  9993
2 43565  56.5069  53.4045 0006065 292.8231  67.0863  1.70475915  4194
1 43565U 18060B   19085.06861682 -.00000053  00000-0  00000-0 0  9997
2 43565  56.5074  53.3883 0006053 292.9595  66.9515  1.70475930  4201
1 43565U 18060B   19086.82836878 -.00000051  00000-0  00000+0 0  9998
2 43565  56.5087  53.3399 0006018 293.2444  66.6703  1.70475989  4238
1 43565U 18060B   19087.41495232 -.00000050  00000-0  00000-0 0  9999
2 43565  56.5091  53.3237 0006007 293.3163  66.5991  1.70475982  4243
1 43565U 18060B   19089.76128027 -.00000047  00000-0  00000+0 0  9999
2 43565  56.5108  53.2591 0005957 293.8660  66.0491  1.70476004  4284
1 43565U 18060B   19089.76128090 -.00000047  00000-0  00000-0 0  9990
2 43565  56.5108  53.2592 0005961 293.8599  66.0551  1.70475993  4284
